$$SOE
2460154.500000000, A.D. 2023-Jul-29 00:00:00.0000, 1.798275145901011E+08, 4.113989404889177E+08, 2.167967073941022E+07,
2460161.500000000, A.D. 2023-Aug-05 00:00:00.0000, 1.710763507180290E+08, 4.141380164236528E+08, 2.387793866576216E+07,
2460168.500000000, A.D. 2023-Aug-12 00:00:00.0000, 1.622334085666240E+08, 4.166545368707657E+08, 2.606335957253501E+07,
2460175.500000000, A.D. 2023-Aug-19 00:00:00.0000, 1.533029457975298E+08, 4.189458970748945E+08, 2.823468051005575E+07,
2460182.500000000, A.D. 2023-Aug-26 00:00:00.0000, 1.442892932391357E+08, 4.210095227615425E+08, 3.039063793288416E+07,
2460189.500000000, A.D. 2023-Sep-02 00:00:00.0000, 1.351968577460772E+08, 4.228428711060440E+08, 3.252995724073079E+07,
2460196.500000000, A.D. 2023-Sep-09 00:00:00.0000, 1.260301251560343E+08, 4.244434317526289E+08, 3.465135231376770E+07,
2460203.500000000, A.D. 2023-Sep-16 00:00:00.0000, 1.167936635115621E+08, 4.258087278340155E+08, 3.675352502350178E+07,
2460210.500000000, A.D. 2023-Sep-23 00:00:00.0000, 1.074921269624608E+08, 4.269363172880531E+08, 3.883516470606917E+07,
2460217.500000000, A.D. 2023-Sep-30 00:00:00.0000, 9.813026000897445E+07, 4.278237956731293E+08, 4.089494772825018E+07,
2460224.500000000, A.D. 2023-Oct-07 00:00:00.0000, 8.871289973221448E+07, 4.284687999484788E+08, 4.293153731943950E+07,
2460231.500000000, A.D. 2023-Oct-14 00:00:00.0000, 7.924497704838407E+07, 4.288690099146732E+08, 4.494358330542880E+07,
2460238.500000000, A.D. 2023-Oct-21 00:00:00.0000, 6.973152021277682E+07, 4.290221489313678E+08, 4.692972158168679E+07,
2460245.500000000, A.D. 2023-Oct-28 00:00:00.0000, 6.017765914951423E+07, 4.289259861852989E+08, 4.888857364397979E+07,
2460252.500000000, A.D. 2023-Nov-04 00:00:00.0000, 5.058862935472412E+07, 4.285783397474619E+08, 5.081874623013738E+07,
2460259.500000000, A.D. 2023-Nov-11 00:00:00.0000, 4.096977554542110E+07, 4.279770798299277E+08, 5.271883101001218E+07,
2460266.500000000, A.D. 2023-Nov-18 00:00:00.0000, 3.132655526643800E+07, 4.271201321910510E+08, 5.458740430118993E+07,
2460273.500000000, A.D. 2023-Nov-25 00:00:00.0000, 2.166454252038982E+07, 4.260054817278753E+08, 5.642302680940643E+07,
2460280.500000000, A.D. 2023-Dec-02 00:00:00.0000, 1.198943144151844E+07, 4.246311762631781E+08, 5.822424339470994E+07,
2460287.500000000, A.D. 2023-Dec-09 00:00:00.0000, 2.307040084558750E+06, 4.229953304874909E+08, 5.998958285625663E+07,
2460294.500000000, A.D. 2023-Dec-16 00:00:00.0000, -7.376685390986285E+06, 4.210961300872434E+08, 6.171755771517915E+07,
2460301.500000000, A.D. 2023-Dec-23 00:00:00.0000, -1.705566580160318E+07, 4.189318367649227E+08, 6.340666402449265E+07,
2460308.500000000, A.D. 2023-Dec-30 00:00:00.0000, -2.672368463595454E+07, 4.165007952196892E+08, 6.505538141953334E+07,
2460315.500000000, A.D. 2024-Jan-06 00:00:00.0000, -3.637438615029532E+07, 4.138014397439796E+08, 6.666217338280597E+07,
2460322.500000000, A.D. 2024-Jan-13 00:00:00.0000, -4.600127270824190E+07, 4.108322986444647E+08, 6.822548728917235E+07,
2460329.500000000, A.D. 2024-Jan-20 00:00:00.0000, -5.559770016240367E+07, 4.075919995954901E+08, 6.974375437803462E+07,
2460336.500000000, A.D. 2024-Jan-27 00:00:00.0000, -6.515687332589387E+07, 4.040792766019115E+08, 7.121538989923543E+07,
2460343.500000000, A.D. 2024-Feb-03 00:00:00.0000, -7.467184198381378E+07, 4.002929776451699E+08, 7.263879340204194E+07,
2460350.500000000, A.D. 2024-Feb-10 00:00:00.0000, -8.413549719222781E+07, 3.962320727447151E+08, 7.401234912646735E+07,
2460357.500000000, A.D. 2024-Feb-17 00:00:00.0000, -9.354056775331767E+07, 3.918956624666063E+08, 7.533442649407235E+07,
2460364.500000000, A.D. 2024-Feb-24 00:00:00.0000, -1.028796168610236E+08, 3.872829869178613E+08, 7.660338070594151E+07,
2460371.500000000, A.D. 2024-Mar-02 00:00:00.0000, -1.121450389214795E+08, 3.823934352173552E+08, 7.781755345282055E+07,
2460378.500000000, A.D. 2024-Mar-09 00:00:00.0000, -1.213290564469719E+08, 3.772265554031000E+08, 7.897527373049200E+07,
2460385.500000000, A.D. 2024-Mar-16 00:00:00.0000, -1.304237166701185E+08, 3.717820649951407E+08, 8.007485875193450E+07,
2460392.500000000, A.D. 2024-Mar-23 00:00:00.0000, -1.394208880290546E+08, 3.660598633451903E+08, 8.111461506919008E+07,
2460399.500000000, A.D. 2024-Mar-30 00:00:00.0000, -1.483122588158239E+08, 3.600600457692055E+08, 8.209284012233345E+07,
2460406.500000000, A.D. 2024-Apr-06 00:00:00.0000, -1.570893377844716E+08, 3.537829161131673E+08, 8.300782393032916E+07,
2460413.500000000, A.D. 2024-Apr-13 00:00:00.0000, -1.657434532291174E+08, 3.472289986000869E+08, 8.385785068011141E+07,
2460420.500000000, A.D. 2024-Apr-20 00:00:00.0000, -1.742657515545914E+08, 3.403990516508856E+08, 8.464120053672229E+07,
2460427.500000000, A.D. 2024-Apr-27 00:00:00.0000, -1.826471969286769E+08, 3.332940831318391E+08, 8.535615178503667E+07,
2460434.500000000, A.D. 2024-May-04 00:00:00.0000, -1.908785720052974E+08, 3.259153663317854E+08, 8.600098325447468E+07,
2460441.500000000, A.D. 2024-May-11 00:00:00.0000, -1.989504795650344E+08, 3.182644565688013E+08, 8.657397701419723E+07,
2460448.500000000, A.D. 2024-May-18 00:00:00.0000, -2.068533450825729E+08, 3.103432084444813E+08, 8.707342135148440E+07,
2460455.500000000, A.D. 2024-May-25 00:00:00.0000, -2.145774202945373E+08, 3.021537937288809E+08, 8.749761404943781E+07,
2460462.500000000, A.D. 2024-Jun-01 00:00:00.0000, -2.221127878126592E+08, 2.936987198012106E+08, 8.784486597314861E+07,
2460469.500000000, A.D. 2024-Jun-08 00:00:00.0000, -2.294493666473122E+08, 2.849808485968146E+08, 8.811350495932935E+07,
2460476.500000000, A.D. 2024-Jun-15 00:00:00.0000, -2.365769183600924E+08, 2.760034165686502E+08, 8.830188003679349E+07,
2460483.500000000, A.D. 2024-Jun-22 00:00:00.0000, -2.434850549765845E+08, 2.667700567910658E+08, 8.840836618585759E+07,
2460490.500000000, A.D. 2024-Jun-29 00:00:00.0000, -2.501632509124498E+08, 2.572848213285382E+08, 8.843136970267251E+07,
2460497.500000000, A.D. 2024-Jul-06 00:00:00.0000, -2.566008563970405E+08, 2.475522013257189E+08, 8.836933374093960E+07,
2460504.500000000, A.D. 2024-Jul-13 00:00:00.0000, -2.627871105774538E+08, 2.375771475466976E+08, 8.822074409585784E+07,
2460511.500000000, A.D. 2024-Jul-20 00:00:00.0000, -2.687111564290929E+08, 2.273650924011240E+08, 8.798413551855293E+07,
2460518.500000000, A.D. 2024-Jul-27 00:00:00.0000, -2.743620582675173E+08, 2.169219723683499E+08, 8.765809855165905E+07,
2460525.500000000, A.D. 2024-Aug-03 00:00:00.0000, -2.797288217269378E+08, 2.062542502893237E+08, 8.724128683525242E+07,
2460532.500000000, A.D. 2024-Aug-10 00:00:00.0000, -2.848004161800495E+08, 1.953689373440433E+08, 8.673242487087086E+07,
2460539.500000000, A.D. 2024-Aug-17 00:00:00.0000, -2.895657996894577E+08, 1.842736145391249E+08, 8.613031624238625E+07,
2460546.500000000, A.D. 2024-Aug-24 00:00:00.0000, -2.940139465903441E+08, 1.729764534644978E+08, 8.543385228580096E+07,
2460553.500000000, A.D. 2024-Aug-31 00:00:00.0000, -2.981338777010494E+08, 1.614862360130984E+08, 8.464202118120772E+07,
2460560.500000000, A.D. 2024-Sep-07 00:00:00.0000, -3.019146928900785E+08, 1.498123729163445E+08, 8.375391742375886E+07,
2460567.500000000, A.D. 2024-Sep-14 00:00:00.0000, -3.053456059874031E+08, 1.379649217878147E+08, 8.276875171816516E+07,
2460574.500000000, A.D. 2024-Sep-21 00:00:00.0000, -3.084159841196385E+08, 1.259546047558440E+08, 8.168586147894050E+07,
2460581.500000000, A.D. 2024-Sep-28 00:00:00.0000, -3.111153919808875E+08, 1.137928221025909E+08, 8.050472167165260E+07,
2460588.500000000, A.D. 2024-Oct-05 00:00:00.0000, -3.134336373520398E+08, 1.014916615348707E+08, 7.922495560095371E+07,
2460595.500000000, A.D. 2024-Oct-12 00:00:00.0000, -3.153608181651031E+08, 8.906390566217813E+07, 7.784634584974608E+07,
2460602.500000000, A.D. 2024-Oct-19 00:00:00.0000, -3.168873727617364E+08, 7.652303698712966E+07, 7.636884542617084E+07,
2460609.500000000, A.D. 2024-Oct-26 00:00:00.0000, -3.180041332271321E+08, 6.388323917682084E+07, 7.479258896376221E+07,
2460616.500000000, A.D. 2024-Nov-02 00:00:00.0000, -3.187023813279598E+08, 5.115939403138054E+07, 7.311790383275983E+07,
2460623.500000000, A.D. 2024-Nov-09 00:00:00.0000, -3.189739066788718E+08, 3.836707373419924E+07, 7.134532103534234E+07,
2460630.500000000, A.D. 2024-Nov-16 00:00:00.0000, -3.188110667657199E+08, 2.552252795682482E+07, 6.947558574986050E+07,
2460637.500000000, A.D. 2024-Nov-23 00:00:00.0000, -3.182068483622527E+08, 1.264266536106287E+07, 6.750966737148875E+07,
2460644.500000000, A.D. 2024-Nov-30 00:00:00.0000, -3.171549296429164E+08, -2.549709209523015E+05, 6.544876887192999E+07,
2460651.500000000, A.D. 2024-Dec-07 00:00:00.0000, -3.156497420094833E+08, -1.315223374167082E+07, 6.329433531018584E+07,
2460658.500000000, A.D. 2024-Dec-14 00:00:00.0000, -3.136865316846771E+08, -2.603040738242952E+07, 6.104806148657194E+07,
2460665.500000000, A.D. 2024-Dec-21 00:00:00.0000, -3.112614226898708E+08, -3.887024943910288E+07, 5.871189867654984E+07,
2460672.500000000, A.D. 2024-Dec-28 00:00:00.0000, -3.083714784770649E+08, -5.165204224461161E+07, 5.628805984710044E+07,
2460679.500000000, A.D. 2025-Jan-04 00:00:00.0000, -3.050147588059132E+08, -6.435565147929082E+07, 5.377902314029988E+07,
2460686.500000000, A.D. 2025-Jan-11 00:00:00.0000, -3.011903728244852E+08, -7.696059022822240E+07, 5.118753375958231E+07,
2460693.500000000, A.D. 2025-Jan-18 00:00:00.0000, -2.968985283820644E+08, -8.944608921168555E+07, 4.851660411175107E+07,
2460700.500000000, A.D. 2025-Jan-25 00:00:00.0000, -2.921405764408547E+08, -1.017911733454911E+08, 4.576951200638784E+07,
2460707.500000000, A.D. 2025-Feb-01 00:00:00.0000, -2.869190495195112E+08, -1.139747442069385E+08, 4.294979677736789E+07,
2460714.500000000, A.D. 2025-Feb-08 00:00:00.0000, -2.812376932607225E+08, -1.259756677957557E+08, 4.006125323209440E+07,
2460721.500000000, A.D. 2025-Feb-15 00:00:00.0000, -2.751014902969583E+08, -1.377728668865667E+08, 3.710792336317949E+07,
$$EOE